OBJECT_NAME,OBJECT_ID,EPOCH,MEAN_MOTION,ECCENTRICITY,INCLINATION,RA_OF_ASC_NODE,ARG_OF_PERICENTER,MEAN_ANOMALY,EPHEMERIS_TYPE,CLASSIFICATION_TYPE,NORAD_CAT_ID,ELEMENT_SET_NO,REV_AT_EPOCH,BSTAR,MEAN_MOTION_DOT,MEAN_MOTION_DDOT
AAUSAT 3,2013-009B,2026-07-05T17:36:33.971328,14.39964200,.00119788,98.3707,10.1059,150.9009,209.2850,0,U,39087,999,69984,.27515944E-3,.824E-5,0
STRAND-1,2013-009E,2026-07-05T10:27:58.912992,14.37175147,.0008827,98.3930,6.2219,168.5564,191.5825,0,U,39090,999,69968,.1469E-3,.394E-5,0
BRITE-AUSTRIA,2013-009F,2026-07-05T22:39:59.738688,14.36549906,.00101887,98.4004,5.9166,177.3840,182.7402,0,U,39091,999,69974,.82602154E-4,.2E-5,0
UNIBRITE,2013-009G,2026-07-06T00:40:22.672416,14.36421136,.00091883,98.4043,6.1137,172.9237,187.2081,0,U,39092,999,69969,.82319867E-4,.199E-5,0
AIST-2 (RS43),2013-015D,2026-07-06T07:44:29.393952,15.26498352,.00176161,64.8675,194.7519,248.0692,111.8566,0,U,39133,999,72682,.1943928E-3,.4907E-4,0
GAOFEN-1,2013-018A,2026-07-06T07:24:55.598976,14.76514729,.00163045,97.9084,258.9884,200.1331,159.9237,0,U,39150,999,71106,.20175487E-3,.1358E-4,0
NEE-01 PEGASO,2013-018B,2026-07-05T05:14:47.136768,14.93758890,.0013941,98.1251,330.9673,104.1848,256.0920,0,U,39151,999,71339,.43662E-3,.4574E-4,0
TURKSAT-3USAT,2013-018C,2026-07-06T04:54:31.203648,14.96555890,.00128284,97.7931,277.9521,44.2900,315.9345,0,U,39152,999,71393,.39644478E-3,.4459E-4,0
CUBEBUG-1 (CAPITAN BETO),2013-018D,2026-07-05T09:52:40.539648,14.97429072,.0013147,98.1702,347.1666,88.1037,272.1689,0,U,39153,999,71379,.43587E-3,.5017E-4,0
PROBA-V,2013-021A,2026-07-06T00:37:02.458560,14.23602059,.00054231,98.3597,164.7033,80.6157,279.5636,0,U,39159,999,68379,.74533771E-4,.129E-5,0
ESTCUBE 1,2013-021C,2026-07-06T02:34:00.645024,14.81459288,.00070725,97.7283,240.6273,321.4824,38.5883,0,U,39161,999,70782,.22743456E-3,.1731E-4,0
ARIRANG-5 (KOMPSAT-5),2013-042A,2026-07-06T07:41:27.362112,15.04558695,.00054052,97.6214,13.7509,76.7950,283.3879,0,U,39227,999,70673,.15502884E-3,.2113E-4,0
GONETS-M 5,2013-048A,2026-07-06T06:33:21.209760,12.42892717,.00169635,82.4851,331.4822,168.4192,191.7281,0,U,39249,999,58125,.10179386E-2,.151E-5,0
GONETS-M 7,2013-048C,2026-07-06T07:35:25.568160,12.42915518,.00177559,82.4918,334.3876,169.6812,190.4635,0,U,39251,999,58121,.87371021E-3,.131E-5,0
FENGYUN 3C,2013-052A,2026-07-06T06:24:26.559648,14.15759294,.0014111,98.4998,160.2667,333.0658,26.9783,0,U,39260,999,66126,.57497327E-4,.71E-6,0
CASSIOPE,2013-055A,2026-07-06T05:48:24.292512,15.26944141,.02853527,80.9127,43.5500,358.2289,1.7901,0,U,39265,999,67057,.4303661E-3,.40012E-3,-.388319E-6
APRIZESAT 7,2013-066A,2026-07-06T06:33:12.375360,14.91605877,.00366451,97.7717,140.2197,145.9654,214.3926,0,U,39416,999,68407,.13612169E-3,.1326E-4,0
ZACUBE-1 (TSHEPISOSAT),2013-066B,2026-07-05T20:53:12.400224,15.01298892,.00433357,97.8029,149.3009,185.1582,174.9202,0,U,39417,999,68353,.30308958E-3,.3914E-4,0
APRIZESAT 8,2013-066K,2026-07-05T20:09:29.376576,14.87686334,.00447656,97.8226,134.0486,223.1684,136.6020,0,U,39425,999,68244,.11012168E-3,.964E-5,0
CINEMA-3 (KHUSAT-2),2013-066L,2026-07-05T13:16:57.933984,14.78338479,.00904766,97.8388,98.2682,151.8976,208.7162,0,U,39426,999,67716,.20800279E-3,.1565E-4,0
TRITON-1,2013-066M,2026-07-06T06:31:10.070976,14.81773600,.00898613,97.8225,96.6432,171.1126,189.1705,0,U,39427,999,67691,.12824285E-3,.1028E-4,0
DELFI-N3XT,2013-066N,2026-07-06T06:01:48.632448,14.95285802,.00753509,97.8319,107.5455,142.2220,218.4324,0,U,39428,999,67747,.56326369E-3,.6506E-4,0
GOMX-1,2013-066Q,2026-07-06T07:40:17.704704,14.69528945,.01290643,97.6472,26.5744,16.6920,343.8475,0,U,39430,999,67272,.41579994E-3,.2752E-4,0
BRITE-PL1 (LEM),2013-066R,2026-07-06T06:56:18.767904,14.51382877,.01888194,97.7976,298.2571,312.1021,46.4253,0,U,39431,999,66670,.8107319E-4,.355E-5,0
ICUBE-1,2013-066S,2026-07-05T22:41:50.721216,15.26343085,.0013884,97.5703,172.8530,262.7958,97.1702,0,U,39432,999,68727,.52716371E-3,.13668E-3,0
VELOX-PII,2013-066Y,2026-07-05T19:09:52.802784,14.93223336,.00510585,97.8747,138.1859,281.5853,77.9637,0,U,39438,999,68061,.3852154E-3,.4069E-4,0
CUBEBUG-2 (LO-74),2013-066AA,2026-07-06T06:53:30.519456,14.93930627,.00562854,97.8914,136.3484,325.7872,33.9725,0,U,39440,999,67984,.39945241E-3,.4323E-4,0
NEE-02 KRYSAOR,2013-066AB,2026-07-06T06:09:39.477888,14.86713200,.00662493,97.8890,126.3363,8.6556,351.5786,0,U,39441,999,67903,.31544349E-3,.286E-4,0
FUNCUBE-1 (AO-73),2013-066AE,2026-07-05T21:09:12.153888,15.09732686,.00374383,97.8282,158.7205,138.2012,222.2087,0,U,39444,999,68248,.53111399E-3,.8644E-4,0
HINCUBE,2013-066AF,2026-07-05T20:38:10.484448,15.08510447,.00340498,97.7980,155.6650,144.8903,215.4578,0,U,39445,999,68234,.53138204E-3,.8337E-4,0
UWE-3,2013-066AG,2026-07-05T20:43:05.753856,14.97161754,.00474155,97.8703,143.0659,257.1230,102.4692,0,U,39446,999,68037,.32714785E-3,.3804E-4,0
SMDC ONE 2.4,2013-072H,2026-07-06T03:58:58.208736,15.18628410,.01472814,120.4914,65.3799,39.0648,322.0958,0,U,39469,999,12071,.50452053E-3,.13658E-3,0
CP8 (IPEX),2013-072K,2026-07-06T04:45:07.136928,15.08327286,.01676261,120.4698,10.6757,22.3683,338.4595,0,U,39471,999,11810,.33904759E-3,.6964E-4,0
COSMOS 2488 (RODNIK-S 7),2013-076A,2026-07-06T06:37:53.786208,12.42905693,.00207885,82.4849,156.8024,56.0343,304.2709,0,U,39483,999,56826,-.48104661E-3,-.57E-6,0
COSMOS 2489 (RODNIK-S 8),2013-076B,2026-07-06T06:02:45.983904,12.42879435,.00226188,82.4885,158.2026,55.8465,304.4755,0,U,39484,999,56831,-.31451529E-3,-.34E-6,0
COSMOS 2490 (RODNIK-S 9),2013-076C,2026-07-06T07:18:14.511168,12.42878696,.00229057,82.4833,156.2291,70.5545,289.8007,0,U,39485,999,56825,.13190517E-3,.28E-6,0
AIST-1 (RS41),2013-078C,2026-07-06T06:55:12.761760,14.96125750,.00159255,82.4148,252.3712,208.9005,151.1336,0,U,39492,999,67810,.18009206E-3,.2056E-4,0
KAZEOSAT 1,2014-024A,2026-07-06T07:27:20.777760,14.42035575,.00013045,98.3195,259.2824,82.2295,277.9043,0,U,39731,999,64131,.10206378E-3,.292E-5,0
COSMOS 2496 (RODNIK-S 10),2014-028A,2026-07-06T06:17:01.820832,12.42879385,.00211602,82.4455,96.7852,39.5714,320.6905,0,U,39761,999,54988,.41164494E-3,.67E-6,0
COSMOS 2497 (RODNIK-S 11),2014-028B,2026-07-06T05:41:05.085024,12.42895350,.00216306,82.4503,98.4979,34.8056,325.4434,0,U,39762,999,54988,.82856911E-3,.125E-5,0
COSMOS 2498 (RODNIK-S 12),2014-028C,2026-07-06T05:06:56.116800,12.42981069,.00223703,82.4463,96.9916,34.4190,325.8333,0,U,39763,999,54991,.72723682E-3,.111E-5,0
COSMOS 2499 (RS47),2014-028E,2026-07-06T05:30:30.711168,12.82903053,.02306204,82.4479,239.5798,317.1501,41.1827,0,U,39765,999,56746,.27975926E-4,.17E-6,0
HODOYOSHI-4,2014-033B,2026-07-06T06:20:51.327744,14.88175294,.00221722,97.5457,11.1661,240.7811,119.1189,0,U,40011,999,65164,.22745343E-3,.2053E-4,0
UNISAT-6,2014-033C,2026-07-06T02:13:38.019360,14.88340747,.0044941,97.7903,339.4747,7.9991,352.1932,0,U,40012,999,64897,.33265515E-3,.308E-4,0
DEIMOS-2,2014-033D,2026-07-06T06:35:17.415168,14.93782569,.00011176,97.5800,61.0904,84.5295,275.6053,0,U,40013,999,64057,.13950419E-3,.1424E-4,0
BUGSAT-1 (TITA),2014-033E,2026-07-06T05:56:23.985312,15.15816583,.00291004,98.0429,280.9137,114.9980,245.4278,0,U,40014,999,65872,.2861122E-3,.5449E-4,0
SAUDISAT 4,2014-033G,2026-07-05T23:41:44.589696,14.79568889,.00450505,97.7607,332.4742,14.0716,346.1740,0,U,40016,999,64885,.9480291E-4,.669E-5,0
APRIZESAT 9,2014-033J,2026-07-05T19:19:13.187136,14.74243575,.00670451,97.9084,319.5508,139.5877,221.0341,0,U,40018,999,64630,.13587616E-3,.878E-5,0
BRITE-CA1 (TORONTO),2014-033L,2026-07-06T06:23:00.902688,14.72710728,.00778074,97.9762,315.8448,215.0117,144.5962,0,U,40020,999,64502,.17255193E-3,.11E-4,0
DUCHIFAT-1,2014-033M,2026-07-06T02:53:02.621472,15.69113634,.00009894,98.0430,249.0015,273.0857,87.0289,0,U,40021,999,65871,.12107124E-2,.14213E-2,0
NANOSATC-BR1,2014-033Q,2026-07-06T02:01:54.192000,15.32115845,.00052746,98.0711,221.1547,118.1118,242.0656,0,U,40024,999,65687,.64071804E-3,.19818E-3,0
QB50P1,2014-033R,2026-07-05T23:56:27.527712,15.18568137,.0009703,98.0967,199.4657,152.3577,207.8173,0,U,40025,999,65588,.44554879E-3,.9146E-4,0
DTUSAT-2,2014-033W,2026-07-05T22:16:05.852928,15.15272734,.00085769,98.0877,185.8481,159.4923,200.6653,0,U,40030,999,65552,.43027346E-3,.8031E-4,0
QB50P2,2014-033Y,2026-07-05T23:40:21.801216,15.15424922,.00093407,98.0762,185.0401,109.2682,250.9560,0,U,40032,999,65551,.43777701E-3,.821E-4,0
PERSEUS-M1,2014-033AF,2026-07-05T20:03:00.697536,14.95692820,.00103636,97.9645,131.2745,231.3781,128.6513,0,U,40039,999,65342,.14847583E-3,.1593E-4,0
POLYITAN-1,2014-033AJ,2026-07-06T00:56:56.025312,15.33980674,.00084639,98.0937,215.0924,89.7204,270.5006,0,U,40042,999,65648,.68653663E-3,.22547E-3,0
TIGRISAT,2014-033AK,2026-07-05T08:58:13.938816,14.85229748,.00494745,97.7858,335.9710,16.6336,343.6488,0,U,40043,999,64832,.28994452E-3,.2486E-4,0
AISAT,2014-034B,2026-07-05T23:53:44.492640,15.09208584,.00100385,98.2364,100.7765,149.7066,210.4743,0,U,40054,999,65004,.6748122E-3,.10678E-3,0
CANX-4,2014-034C,2026-07-06T04:49:20.323488,14.81300630,.00117964,98.3098,63.2100,314.7070,45.3180,0,U,40055,999,64734,.13830832E-3,.1023E-4,0
CANX-5,2014-034D,2026-07-06T03:09:29.630016,14.81317794,.0011793,98.3100,63.1828,315.1569,44.8689,0,U,40056,999,63814,.13835546E-3,.1023E-4,0
VELOX-I,2014-034E,2026-07-06T07:06:35.951616,14.98076214,.0006361,98.2532,93.3822,189.6243,170.4857,0,U,40057,999,64946,.52946007E-3,.6203E-4,0
GONETS-M 10,2014-036C,2026-07-06T07:24:02.555424,12.42946439,.00230022,82.5126,295.7984,100.8399,259.5271,0,U,40063,999,54462,.78220453E-3,.119E-5,0
METEOR-M 2,2014-037A,2026-07-06T05:18:37.243296,14.21467303,.00057507,98.5129,162.2866,354.4488,5.6625,0,U,40069,999,62202,.1132041E-3,.205E-5,0
DX1,2014-037C,2026-07-06T07:10:27.901920,14.90047838,.00064552,98.3878,150.1620,200.8383,159.2571,0,U,40071,999,64895,.32630699E-3,.3089E-4,0
